{
  "type": "FeatureCollection",
  "features": [
    {
      "type": "Feature",
      "properties": {
        "name": "通海港区铁路专用线",
        "osm_way_id": 988673738,
        "source": "OpenStreetMap"
      },
      "geometry": {
        "type": "LineString",
        "coordinates": [
          [
            121.0973791,
            31.9331961
          ],
          [
            121.0956358,
            31.9331113
          ],
          [
            121.094839,
            31.9330339
          ],
          [
            121.0941258,
            31.9328771
          ],
          [
            121.0934586,
            31.9326534
          ],
          [
            121.0927154,
            31.9322885
          ],
          [
            121.0921153,
            31.9319329
          ],
          [
            121.0916128,
            31.931525
          ],
          [
            121.0911529,
            31.931092
          ],
          [
            121.0906801,
            31.930528
          ],
          [
            121.0902821,
            31.9298774
          ],
          [
            121.0899505,
            31.9290964
          ],
          [
            121.0897408,
            31.9279971
          ],
          [
            121.0894912,
            31.921272
          ],
          [
            121.0891116,
            31.9195166
          ],
          [
            121.0886355,
            31.9184274
          ],
          [
            121.0880904,
            31.9175743
          ],
          [
            121.0876139,
            31.9169969
          ],
          [
            121.0868975,
            31.9163249
          ],
          [
            121.0854769,
            31.9151714
          ],
          [
            121.0847563,
            31.9144363
          ],
          [
            121.084343,
            31.9138552
          ],
          [
            121.0839821,
            31.913224
          ],
          [
            121.0835363,
            31.9121809
          ],
          [
            121.0833133,
            31.9113106
          ],
          [
            121.0832236,
            31.9105676
          ],
          [
            121.0832389,
            31.9098189
          ],
          [
            121.0836604,
            31.9049374
          ],
          [
            121.0843373,
            31.8982363
          ],
          [
            121.0849764,
            31.8914886
          ],
          [
            121.0852669,
            31.8879666
          ],
          [
            121.0851274,
            31.8867728
          ],
          [
            121.0846278,
            31.8854212
          ],
          [
            121.0837912,
            31.8836551
          ],
          [
            121.0828849,
            31.8816029
          ],
          [
            121.0816416,
            31.87886
          ],
          [
            121.0806075,
            31.8765906
          ],
          [
            121.0802473,
            31.8752783
          ],
          [
            121.0800265,
            31.8739265
          ],
          [
            121.080073,
            31.8722589
          ],
          [
            121.0802241,
            31.8652133
          ],
          [
            121.0802822,
            31.860881
          ],
          [
            121.0803867,
            31.8508538
          ],
          [
            121.0805262,
            31.8374991
          ],
          [
            121.0804216,
            31.8360283
          ],
          [
            121.0801427,
            31.8350806
          ],
          [
            121.0796199,
            31.8341428
          ],
          [
            121.0788414,
            31.8330865
          ],
          [
            121.0775873,
            31.8319756
          ],
          [
            121.0766114,
            31.8313278
          ],
          [
            121.0727537,
            31.8295996
          ],
          [
            121.0704638,
            31.8288811
          ],
          [
            121.0675357,
            31.8282987
          ],
          [
            121.0619817,
            31.8276767
          ],
          [
            121.0579206,
            31.8272079
          ],
          [
            121.0568343,
            31.8270646
          ],
          [
            121.056113,
            31.8268839
          ],
          [
            121.0554488,
            31.8266423
          ],
          [
            121.0547714,
            31.8262855
          ],
          [
            121.0541707,
            31.8258728
          ],
          [
            121.0536272,
            31.8254298
          ],
          [
            121.0529416,
            31.8246546
          ],
          [
            121.0526146,
            31.8241813
          ],
          [
            121.0523725,
            31.823708
          ],
          [
            121.0521614,
            31.8230907
          ],
          [
            121.0520749,
            31.8227861
          ],
          [
            121.0520052,
            31.8224517
          ],
          [
            121.0515851,
            31.8200961
          ],
          [
            121.0514943,
            31.8195869
          ],
          [
            121.0514137,
            31.8191593
          ],
          [
            121.0497652,
            31.8104121
          ],
          [
            121.049454,
            31.8088347
          ],
          [
            121.0493819,
            31.8084691
          ],
          [
            121.0493282,
            31.8081967
          ],
          [
            121.0492635,
            31.8078404
          ],
          [
            121.0488622,
            31.8056319
          ],
          [
            121.0470993,
            31.7959471
          ]
        ]
      }
    },
    {
      "type": "Feature",
      "properties": {
        "name": "通海港区铁路专用线",
        "osm_way_id": 1487512008,
        "source": "OpenStreetMap"
      },
      "geometry": {
        "type": "LineString",
        "coordinates": [
          [
            121.1692981,
            31.928516
          ],
          [
            121.1684218,
            31.9285274
          ],
          [
            121.1682031,
            31.9285325
          ]
        ]
      }
    },
    {
      "type": "Feature",
      "properties": {
        "name": "通海港区铁路专用线",
        "osm_way_id": 1487512009,
        "source": "OpenStreetMap"
      },
      "geometry": {
        "type": "LineString",
        "coordinates": [
          [
            121.1682031,
            31.9285325
          ],
          [
            121.1674941,
            31.9285338
          ],
          [
            121.166276,
            31.9285542
          ],
          [
            121.1627539,
            31.9287172
          ],
          [
            121.1624866,
            31.9287253
          ]
        ]
      }
    },
    {
      "type": "Feature",
      "properties": {
        "name": "通海港区铁路专用线",
        "osm_way_id": 1523875076,
        "source": "OpenStreetMap"
      },
      "geometry": {
        "type": "LineString",
        "coordinates": [
          [
            121.1624866,
            31.9287253
          ],
          [
            121.1572189,
            31.928983
          ],
          [
            121.1557193,
            31.9290103
          ],
          [
            121.1500606,
            31.9289137
          ],
          [
            121.1455566,
            31.9291347
          ],
          [
            121.1441388,
            31.9292633
          ],
          [
            121.1428105,
            31.929485
          ],
          [
            121.1384456,
            31.930426
          ],
          [
            121.136986,
            31.9306394
          ],
          [
            121.1356109,
            31.9307225
          ],
          [
            121.1341187,
            31.9308057
          ],
          [
            121.1326583,
            31.9309897
          ],
          [
            121.1312954,
            31.9313116
          ],
          [
            121.1244073,
            31.9328724
          ],
          [
            121.1224733,
            31.933276
          ],
          [
            121.1208157,
            31.9335232
          ],
          [
            121.1184551,
            31.9337261
          ],
          [
            121.1165295,
            31.9338009
          ],
          [
            121.1112989,
            31.9336548
          ],
          [
            121.1062358,
            31.9334873
          ],
          [
            121.0988686,
            31.933243
          ],
          [
            121.0973791,
            31.9331961
          ]
        ]
      }
    },
    {
      "type": "Feature",
      "properties": {
        "name": "点位 1",
        "point_number": 1,
        "source_row": 2,
        "source_sheet": "xl/worksheets/sheet1.xml",
        "crs": "CGCS2000 / EPSG:4490"
      },
      "geometry": {
        "type": "Point",
        "coordinates": [
          121.052559163,
          31.824126966
        ]
      }
    },
    {
      "type": "Feature",
      "properties": {
        "name": "点位 2",
        "point_number": 2,
        "source_row": 3,
        "source_sheet": "xl/worksheets/sheet1.xml",
        "crs": "CGCS2000 / EPSG:4490"
      },
      "geometry": {
        "type": "Point",
        "coordinates": [
          121.062956534,
          31.827799215
        ]
      }
    },
    {
      "type": "Feature",
      "properties": {
        "name": "点位 3",
        "point_number": 3,
        "source_row": 4,
        "source_sheet": "xl/worksheets/sheet1.xml",
        "crs": "CGCS2000 / EPSG:4490"
      },
      "geometry": {
        "type": "Point",
        "coordinates": [
          121.066045567,
          31.828149653
        ]
      }
    },
    {
      "type": "Feature",
      "properties": {
        "name": "点位 4",
        "point_number": 4,
        "source_row": 5,
        "source_sheet": "xl/worksheets/sheet1.xml",
        "crs": "CGCS2000 / EPSG:4490"
      },
      "geometry": {
        "type": "Point",
        "coordinates": [
          121.080461007,
          31.842253136
        ]
      }
    },
    {
      "type": "Feature",
      "properties": {
        "name": "点位 5",
        "point_number": 5,
        "source_row": 6,
        "source_sheet": "xl/worksheets/sheet1.xml",
        "crs": "CGCS2000 / EPSG:4490"
      },
      "geometry": {
        "type": "Point",
        "coordinates": [
          121.080373676,
          31.847099129
        ]
      }
    },
    {
      "type": "Feature",
      "properties": {
        "name": "点位 6",
        "point_number": 6,
        "source_row": 7,
        "source_sheet": "xl/worksheets/sheet1.xml",
        "crs": "CGCS2000 / EPSG:4490"
      },
      "geometry": {
        "type": "Point",
        "coordinates": [
          121.080404544,
          31.848198315
        ]
      }
    },
    {
      "type": "Feature",
      "properties": {
        "name": "点位 7",
        "point_number": 7,
        "source_row": 8,
        "source_sheet": "xl/worksheets/sheet1.xml",
        "crs": "CGCS2000 / EPSG:4490"
      },
      "geometry": {
        "type": "Point",
        "coordinates": [
          121.080381471,
          31.84931855
        ]
      }
    },
    {
      "type": "Feature",
      "properties": {
        "name": "点位 8",
        "point_number": 8,
        "source_row": 9,
        "source_sheet": "xl/worksheets/sheet1.xml",
        "crs": "CGCS2000 / EPSG:4490"
      },
      "geometry": {
        "type": "Point",
        "coordinates": [
          121.080365493,
          31.849271553
        ]
      }
    },
    {
      "type": "Feature",
      "properties": {
        "name": "点位 9",
        "point_number": 9,
        "source_row": 10,
        "source_sheet": "xl/worksheets/sheet1.xml",
        "crs": "CGCS2000 / EPSG:4490"
      },
      "geometry": {
        "type": "Point",
        "coordinates": [
          121.080317246,
          31.85266625
        ]
      }
    },
    {
      "type": "Feature",
      "properties": {
        "name": "点位 10",
        "point_number": 10,
        "source_row": 11,
        "source_sheet": "xl/worksheets/sheet1.xml",
        "crs": "CGCS2000 / EPSG:4490"
      },
      "geometry": {
        "type": "Point",
        "coordinates": [
          121.08030122,
          31.853159359
        ]
      }
    },
    {
      "type": "Feature",
      "properties": {
        "name": "点位 11",
        "point_number": 11,
        "source_row": 12,
        "source_sheet": "xl/worksheets/sheet1.xml",
        "crs": "CGCS2000 / EPSG:4490"
      },
      "geometry": {
        "type": "Point",
        "coordinates": [
          121.080325056,
          31.854719645
        ]
      }
    },
    {
      "type": "Feature",
      "properties": {
        "name": "点位 12",
        "point_number": 12,
        "source_row": 13,
        "source_sheet": "xl/worksheets/sheet1.xml",
        "crs": "CGCS2000 / EPSG:4490"
      },
      "geometry": {
        "type": "Point",
        "coordinates": [
          121.080284917,
          31.856800085
        ]
      }
    },
    {
      "type": "Feature",
      "properties": {
        "name": "点位 13",
        "point_number": 13,
        "source_row": 14,
        "source_sheet": "xl/worksheets/sheet1.xml",
        "crs": "CGCS2000 / EPSG:4490"
      },
      "geometry": {
        "type": "Point",
        "coordinates": [
          121.080277668,
          31.859707665
        ]
      }
    },
    {
      "type": "Feature",
      "properties": {
        "name": "点位 14",
        "point_number": 14,
        "source_row": 15,
        "source_sheet": "xl/worksheets/sheet1.xml",
        "crs": "CGCS2000 / EPSG:4490"
      },
      "geometry": {
        "type": "Point",
        "coordinates": [
          121.080190551,
          31.862128217
        ]
      }
    },
    {
      "type": "Feature",
      "properties": {
        "name": "点位 15",
        "point_number": 15,
        "source_row": 16,
        "source_sheet": "xl/worksheets/sheet1.xml",
        "crs": "CGCS2000 / EPSG:4490"
      },
      "geometry": {
        "type": "Point",
        "coordinates": [
          121.080198436,
          31.86332845
        ]
      }
    },
    {
      "type": "Feature",
      "properties": {
        "name": "点位 16",
        "point_number": 16,
        "source_row": 17,
        "source_sheet": "xl/worksheets/sheet1.xml",
        "crs": "CGCS2000 / EPSG:4490"
      },
      "geometry": {
        "type": "Point",
        "coordinates": [
          121.080206292,
          31.86485575
        ]
      }
    },
    {
      "type": "Feature",
      "properties": {
        "name": "点位 17",
        "point_number": 17,
        "source_row": 18,
        "source_sheet": "xl/worksheets/sheet1.xml",
        "crs": "CGCS2000 / EPSG:4490"
      },
      "geometry": {
        "type": "Point",
        "coordinates": [
          121.080135312,
          31.865525942
        ]
      }
    },
    {
      "type": "Feature",
      "properties": {
        "name": "点位 18",
        "point_number": 18,
        "source_row": 19,
        "source_sheet": "xl/worksheets/sheet1.xml",
        "crs": "CGCS2000 / EPSG:4490"
      },
      "geometry": {
        "type": "Point",
        "coordinates": [
          121.080104144,
          31.867826431
        ]
      }
    },
    {
      "type": "Feature",
      "properties": {
        "name": "点位 19",
        "point_number": 19,
        "source_row": 20,
        "source_sheet": "xl/worksheets/sheet1.xml",
        "crs": "CGCS2000 / EPSG:4490"
      },
      "geometry": {
        "type": "Point",
        "coordinates": [
          121.080104965,
          31.869829836
        ]
      }
    },
    {
      "type": "Feature",
      "properties": {
        "name": "点位 20",
        "point_number": 20,
        "source_row": 21,
        "source_sheet": "xl/worksheets/sheet1.xml",
        "crs": "CGCS2000 / EPSG:4490"
      },
      "geometry": {
        "type": "Point",
        "coordinates": [
          121.080094902,
          31.870679016
        ]
      }
    },
    {
      "type": "Feature",
      "properties": {
        "name": "点位 21",
        "point_number": 21,
        "source_row": 22,
        "source_sheet": "xl/worksheets/sheet1.xml",
        "crs": "CGCS2000 / EPSG:4490"
      },
      "geometry": {
        "type": "Point",
        "coordinates": [
          121.080093792,
          31.871936273
        ]
      }
    },
    {
      "type": "Feature",
      "properties": {
        "name": "点位 22",
        "point_number": 22,
        "source_row": 23,
        "source_sheet": "xl/worksheets/sheet1.xml",
        "crs": "CGCS2000 / EPSG:4490"
      },
      "geometry": {
        "type": "Point",
        "coordinates": [
          121.080337174,
          31.875844876
        ]
      }
    },
    {
      "type": "Feature",
      "properties": {
        "name": "点位 23",
        "point_number": 23,
        "source_row": 24,
        "source_sheet": "xl/worksheets/sheet1.xml",
        "crs": "CGCS2000 / EPSG:4490"
      },
      "geometry": {
        "type": "Point",
        "coordinates": [
          121.080882466,
          31.8770907
        ]
      }
    },
    {
      "type": "Feature",
      "properties": {
        "name": "点位 24",
        "point_number": 24,
        "source_row": 25,
        "source_sheet": "xl/worksheets/sheet1.xml",
        "crs": "CGCS2000 / EPSG:4490"
      },
      "geometry": {
        "type": "Point",
        "coordinates": [
          121.081345877,
          31.878132559
        ]
      }
    },
    {
      "type": "Feature",
      "properties": {
        "name": "点位 25",
        "point_number": 25,
        "source_row": 26,
        "source_sheet": "xl/worksheets/sheet1.xml",
        "crs": "CGCS2000 / EPSG:4490"
      },
      "geometry": {
        "type": "Point",
        "coordinates": [
          121.082301702,
          31.880264295
        ]
      }
    },
    {
      "type": "Feature",
      "properties": {
        "name": "点位 26",
        "point_number": 26,
        "source_row": 27,
        "source_sheet": "xl/worksheets/sheet1.xml",
        "crs": "CGCS2000 / EPSG:4490"
      },
      "geometry": {
        "type": "Point",
        "coordinates": [
          121.083413388,
          31.882825059
        ]
      }
    },
    {
      "type": "Feature",
      "properties": {
        "name": "点位 27",
        "point_number": 27,
        "source_row": 28,
        "source_sheet": "xl/worksheets/sheet1.xml",
        "crs": "CGCS2000 / EPSG:4490"
      },
      "geometry": {
        "type": "Point",
        "coordinates": [
          121.084656008,
          31.885546835
        ]
      }
    },
    {
      "type": "Feature",
      "properties": {
        "name": "点位 28",
        "point_number": 28,
        "source_row": 29,
        "source_sheet": "xl/worksheets/sheet1.xml",
        "crs": "CGCS2000 / EPSG:4490"
      },
      "geometry": {
        "type": "Point",
        "coordinates": [
          121.085112491,
          31.886904846
        ]
      }
    },
    {
      "type": "Feature",
      "properties": {
        "name": "点位 29",
        "point_number": 29,
        "source_row": 30,
        "source_sheet": "xl/worksheets/sheet1.xml",
        "crs": "CGCS2000 / EPSG:4490"
      },
      "geometry": {
        "type": "Point",
        "coordinates": [
          121.085244222,
          31.888663138
        ]
      }
    },
    {
      "type": "Feature",
      "properties": {
        "name": "点位 30",
        "point_number": 30,
        "source_row": 31,
        "source_sheet": "xl/worksheets/sheet1.xml",
        "crs": "CGCS2000 / EPSG:4490"
      },
      "geometry": {
        "type": "Point",
        "coordinates": [
          121.085105216,
          31.890071517
        ]
      }
    },
    {
      "type": "Feature",
      "properties": {
        "name": "点位 31",
        "point_number": 31,
        "source_row": 32,
        "source_sheet": "xl/worksheets/sheet1.xml",
        "crs": "CGCS2000 / EPSG:4490"
      },
      "geometry": {
        "type": "Point",
        "coordinates": [
          121.08505621,
          31.890616661
        ]
      }
    },
    {
      "type": "Feature",
      "properties": {
        "name": "点位 32",
        "point_number": 32,
        "source_row": 33,
        "source_sheet": "xl/worksheets/sheet1.xml",
        "crs": "CGCS2000 / EPSG:4490"
      },
      "geometry": {
        "type": "Point",
        "coordinates": [
          121.084833178,
          31.893165334
        ]
      }
    },
    {
      "type": "Feature",
      "properties": {
        "name": "点位 33",
        "point_number": 33,
        "source_row": 34,
        "source_sheet": "xl/worksheets/sheet1.xml",
        "crs": "CGCS2000 / EPSG:4490"
      },
      "geometry": {
        "type": "Point",
        "coordinates": [
          121.084724178,
          31.89424563
        ]
      }
    },
    {
      "type": "Feature",
      "properties": {
        "name": "点位 34",
        "point_number": 34,
        "source_row": 35,
        "source_sheet": "xl/worksheets/sheet1.xml",
        "crs": "CGCS2000 / EPSG:4490"
      },
      "geometry": {
        "type": "Point",
        "coordinates": [
          121.08466417,
          31.894932813
        ]
      }
    },
    {
      "type": "Feature",
      "properties": {
        "name": "点位 35",
        "point_number": 35,
        "source_row": 36,
        "source_sheet": "xl/worksheets/sheet1.xml",
        "crs": "CGCS2000 / EPSG:4490"
      },
      "geometry": {
        "type": "Point",
        "coordinates": [
          121.084668167,
          31.89492981
        ]
      }
    },
    {
      "type": "Feature",
      "properties": {
        "name": "点位 36",
        "point_number": 36,
        "source_row": 37,
        "source_sheet": "xl/worksheets/sheet1.xml",
        "crs": "CGCS2000 / EPSG:4490"
      },
      "geometry": {
        "type": "Point",
        "coordinates": [
          121.084397183,
          31.897463517
        ]
      }
    },
    {
      "type": "Feature",
      "properties": {
        "name": "点位 37",
        "point_number": 37,
        "source_row": 38,
        "source_sheet": "xl/worksheets/sheet1.xml",
        "crs": "CGCS2000 / EPSG:4490"
      },
      "geometry": {
        "type": "Point",
        "coordinates": [
          121.084231167,
          31.899332021
        ]
      }
    },
    {
      "type": "Feature",
      "properties": {
        "name": "点位 38",
        "point_number": 38,
        "source_row": 39,
        "source_sheet": "xl/worksheets/sheet1.xml",
        "crs": "CGCS2000 / EPSG:4490"
      },
      "geometry": {
        "type": "Point",
        "coordinates": [
          121.084141147,
          31.900484326
        ]
      }
    },
    {
      "type": "Feature",
      "properties": {
        "name": "点位 39",
        "point_number": 39,
        "source_row": 40,
        "source_sheet": "xl/worksheets/sheet1.xml",
        "crs": "CGCS2000 / EPSG:4490"
      },
      "geometry": {
        "type": "Point",
        "coordinates": [
          121.083880154,
          31.903108058
        ]
      }
    },
    {
      "type": "Feature",
      "properties": {
        "name": "点位 40",
        "point_number": 40,
        "source_row": 41,
        "source_sheet": "xl/worksheets/sheet1.xml",
        "crs": "CGCS2000 / EPSG:4490"
      },
      "geometry": {
        "type": "Point",
        "coordinates": [
          121.083655139,
          31.90563475
        ]
      }
    },
    {
      "type": "Feature",
      "properties": {
        "name": "点位 41",
        "point_number": 41,
        "source_row": 42,
        "source_sheet": "xl/worksheets/sheet1.xml",
        "crs": "CGCS2000 / EPSG:4490"
      },
      "geometry": {
        "type": "Point",
        "coordinates": [
          121.083564148,
          31.906493996
        ]
      }
    },
    {
      "type": "Feature",
      "properties": {
        "name": "点位 42",
        "point_number": 42,
        "source_row": 43,
        "source_sheet": "xl/worksheets/sheet1.xml",
        "crs": "CGCS2000 / EPSG:4490"
      },
      "geometry": {
        "type": "Point",
        "coordinates": [
          121.083451169,
          31.907469283
        ]
      }
    },
    {
      "type": "Feature",
      "properties": {
        "name": "点位 43",
        "point_number": 43,
        "source_row": 44,
        "source_sheet": "xl/worksheets/sheet1.xml",
        "crs": "CGCS2000 / EPSG:4490"
      },
      "geometry": {
        "type": "Point",
        "coordinates": [
          121.083236136,
          31.91015201
        ]
      }
    },
    {
      "type": "Feature",
      "properties": {
        "name": "点位 44",
        "point_number": 44,
        "source_row": 45,
        "source_sheet": "xl/worksheets/sheet1.xml",
        "crs": "CGCS2000 / EPSG:4490"
      },
      "geometry": {
        "type": "Point",
        "coordinates": [
          121.083274,
          31.91127723
        ]
      }
    },
    {
      "type": "Feature",
      "properties": {
        "name": "点位 45",
        "point_number": 45,
        "source_row": 46,
        "source_sheet": "xl/worksheets/sheet1.xml",
        "crs": "CGCS2000 / EPSG:4490"
      },
      "geometry": {
        "type": "Point",
        "coordinates": [
          121.083717457,
          31.912673242
        ]
      }
    },
    {
      "type": "Feature",
      "properties": {
        "name": "点位 46",
        "point_number": 46,
        "source_row": 47,
        "source_sheet": "xl/worksheets/sheet1.xml",
        "crs": "CGCS2000 / EPSG:4490"
      },
      "geometry": {
        "type": "Point",
        "coordinates": [
          121.084365757,
          31.91386809
        ]
      }
    },
    {
      "type": "Feature",
      "properties": {
        "name": "点位 47",
        "point_number": 47,
        "source_row": 48,
        "source_sheet": "xl/worksheets/sheet1.xml",
        "crs": "CGCS2000 / EPSG:4490"
      },
      "geometry": {
        "type": "Point",
        "coordinates": [
          121.085460688,
          31.915184723
        ]
      }
    },
    {
      "type": "Feature",
      "properties": {
        "name": "点位 48",
        "point_number": 48,
        "source_row": 49,
        "source_sheet": "xl/worksheets/sheet1.xml",
        "crs": "CGCS2000 / EPSG:4490"
      },
      "geometry": {
        "type": "Point",
        "coordinates": [
          121.086209022,
          31.915775436
        ]
      }
    },
    {
      "type": "Feature",
      "properties": {
        "name": "点位 49",
        "point_number": 49,
        "source_row": 50,
        "source_sheet": "xl/worksheets/sheet1.xml",
        "crs": "CGCS2000 / EPSG:4490"
      },
      "geometry": {
        "type": "Point",
        "coordinates": [
          121.087036318,
          31.916446152
        ]
      }
    },
    {
      "type": "Feature",
      "properties": {
        "name": "点位 50",
        "point_number": 50,
        "source_row": 51,
        "source_sheet": "xl/worksheets/sheet1.xml",
        "crs": "CGCS2000 / EPSG:4490"
      },
      "geometry": {
        "type": "Point",
        "coordinates": [
          121.087313085,
          31.916731077
        ]
      }
    },
    {
      "type": "Feature",
      "properties": {
        "name": "点位 51",
        "point_number": 51,
        "source_row": 52,
        "source_sheet": "xl/worksheets/sheet1.xml",
        "crs": "CGCS2000 / EPSG:4490"
      },
      "geometry": {
        "type": "Point",
        "coordinates": [
          121.08856606,
          31.918261835
        ]
      }
    },
    {
      "type": "Feature",
      "properties": {
        "name": "点位 52",
        "point_number": 52,
        "source_row": 53,
        "source_sheet": "xl/worksheets/sheet1.xml",
        "crs": "CGCS2000 / EPSG:4490"
      },
      "geometry": {
        "type": "Point",
        "coordinates": [
          121.089160547,
          31.919619884
        ]
      }
    },
    {
      "type": "Feature",
      "properties": {
        "name": "点位 53",
        "point_number": 53,
        "source_row": 54,
        "source_sheet": "xl/worksheets/sheet1.xml",
        "crs": "CGCS2000 / EPSG:4490"
      },
      "geometry": {
        "type": "Point",
        "coordinates": [
          121.089382326,
          31.920507991
        ]
      }
    },
    {
      "type": "Feature",
      "properties": {
        "name": "点位 54",
        "point_number": 54,
        "source_row": 55,
        "source_sheet": "xl/worksheets/sheet1.xml",
        "crs": "CGCS2000 / EPSG:4490"
      },
      "geometry": {
        "type": "Point",
        "coordinates": [
          121.089483175,
          31.92149717
        ]
      }
    },
    {
      "type": "Feature",
      "properties": {
        "name": "点位 55",
        "point_number": 55,
        "source_row": 56,
        "source_sheet": "xl/worksheets/sheet1.xml",
        "crs": "CGCS2000 / EPSG:4490"
      },
      "geometry": {
        "type": "Point",
        "coordinates": [
          121.089490088,
          31.922421372
        ]
      }
    },
    {
      "type": "Feature",
      "properties": {
        "name": "点位 56",
        "point_number": 56,
        "source_row": 57,
        "source_sheet": "xl/worksheets/sheet1.xml",
        "crs": "CGCS2000 / EPSG:4490"
      },
      "geometry": {
        "type": "Point",
        "coordinates": [
          121.089625781,
          31.924927875
        ]
      }
    },
    {
      "type": "Feature",
      "properties": {
        "name": "点位 57",
        "point_number": 57,
        "source_row": 58,
        "source_sheet": "xl/worksheets/sheet1.xml",
        "crs": "CGCS2000 / EPSG:4490"
      },
      "geometry": {
        "type": "Point",
        "coordinates": [
          121.089715574,
          31.926634219
        ]
      }
    },
    {
      "type": "Feature",
      "properties": {
        "name": "点位 58",
        "point_number": 58,
        "source_row": 59,
        "source_sheet": "xl/worksheets/sheet1.xml",
        "crs": "CGCS2000 / EPSG:4490"
      },
      "geometry": {
        "type": "Point",
        "coordinates": [
          121.089723526,
          31.927120324
        ]
      }
    },
    {
      "type": "Feature",
      "properties": {
        "name": "点位 59",
        "point_number": 59,
        "source_row": 60,
        "source_sheet": "xl/worksheets/sheet1.xml",
        "crs": "CGCS2000 / EPSG:4490"
      },
      "geometry": {
        "type": "Point",
        "coordinates": [
          121.089772403,
          31.92817454
        ]
      }
    },
    {
      "type": "Feature",
      "properties": {
        "name": "点位 60",
        "point_number": 60,
        "source_row": 61,
        "source_sheet": "xl/worksheets/sheet1.xml",
        "crs": "CGCS2000 / EPSG:4490"
      },
      "geometry": {
        "type": "Point",
        "coordinates": [
          121.089975196,
          31.929111673
        ]
      }
    },
    {
      "type": "Feature",
      "properties": {
        "name": "点位 61",
        "point_number": 61,
        "source_row": 62,
        "source_sheet": "xl/worksheets/sheet1.xml",
        "crs": "CGCS2000 / EPSG:4490"
      },
      "geometry": {
        "type": "Point",
        "coordinates": [
          121.090513773,
          31.930309747
        ]
      }
    },
    {
      "type": "Feature",
      "properties": {
        "name": "点位 62",
        "point_number": 62,
        "source_row": 63,
        "source_sheet": "xl/worksheets/sheet1.xml",
        "crs": "CGCS2000 / EPSG:4490"
      },
      "geometry": {
        "type": "Point",
        "coordinates": [
          121.09103642,
          31.930990724
        ]
      }
    },
    {
      "type": "Feature",
      "properties": {
        "name": "点位 63",
        "point_number": 63,
        "source_row": 64,
        "source_sheet": "xl/worksheets/sheet1.xml",
        "crs": "CGCS2000 / EPSG:4490"
      },
      "geometry": {
        "type": "Point",
        "coordinates": [
          121.091762976,
          31.931677655
        ]
      }
    },
    {
      "type": "Feature",
      "properties": {
        "name": "点位 64",
        "point_number": 64,
        "source_row": 65,
        "source_sheet": "xl/worksheets/sheet1.xml",
        "crs": "CGCS2000 / EPSG:4490"
      },
      "geometry": {
        "type": "Point",
        "coordinates": [
          121.093098273,
          31.932479487
        ]
      }
    },
    {
      "type": "Feature",
      "properties": {
        "name": "点位 65",
        "point_number": 65,
        "source_row": 66,
        "source_sheet": "xl/worksheets/sheet1.xml",
        "crs": "CGCS2000 / EPSG:4490"
      },
      "geometry": {
        "type": "Point",
        "coordinates": [
          121.097189857,
          31.93316907
        ]
      }
    },
    {
      "type": "Feature",
      "properties": {
        "name": "点位 66",
        "point_number": 66,
        "source_row": 67,
        "source_sheet": "xl/worksheets/sheet1.xml",
        "crs": "CGCS2000 / EPSG:4490"
      },
      "geometry": {
        "type": "Point",
        "coordinates": [
          121.114321299,
          31.933749607
        ]
      }
    },
    {
      "type": "Feature",
      "properties": {
        "name": "点位 67",
        "point_number": 67,
        "source_row": 68,
        "source_sheet": "xl/worksheets/sheet1.xml",
        "crs": "CGCS2000 / EPSG:4490"
      },
      "geometry": {
        "type": "Point",
        "coordinates": [
          121.121783159,
          31.933365536
        ]
      }
    },
    {
      "type": "Feature",
      "properties": {
        "name": "点位 68",
        "point_number": 68,
        "source_row": 69,
        "source_sheet": "xl/worksheets/sheet1.xml",
        "crs": "CGCS2000 / EPSG:4490"
      },
      "geometry": {
        "type": "Point",
        "coordinates": [
          121.134371316,
          31.930781432
        ]
      }
    },
    {
      "type": "Feature",
      "properties": {
        "name": "点位 69",
        "point_number": 69,
        "source_row": 70,
        "source_sheet": "xl/worksheets/sheet1.xml",
        "crs": "CGCS2000 / EPSG:4490"
      },
      "geometry": {
        "type": "Point",
        "coordinates": [
          121.136036721,
          31.930695686
        ]
      }
    },
    {
      "type": "Feature",
      "properties": {
        "name": "点位 70",
        "point_number": 70,
        "source_row": 71,
        "source_sheet": "xl/worksheets/sheet1.xml",
        "crs": "CGCS2000 / EPSG:4490"
      },
      "geometry": {
        "type": "Point",
        "coordinates": [
          121.150091264,
          31.92889913
        ]
      }
    },
    {
      "type": "Feature",
      "properties": {
        "name": "点位 71",
        "point_number": 71,
        "source_row": 72,
        "source_sheet": "xl/worksheets/sheet1.xml",
        "crs": "CGCS2000 / EPSG:4490"
      },
      "geometry": {
        "type": "Point",
        "coordinates": [
          121.138961175,
          31.930333776
        ]
      }
    },
    {
      "type": "Feature",
      "properties": {
        "name": "点位 72",
        "point_number": 72,
        "source_row": 73,
        "source_sheet": "xl/worksheets/sheet1.xml",
        "crs": "CGCS2000 / EPSG:4490"
      },
      "geometry": {
        "type": "Point",
        "coordinates": [
          121.15709454,
          31.929021419
        ]
      }
    },
    {
      "type": "Feature",
      "properties": {
        "name": "点位 73",
        "point_number": 73,
        "source_row": 74,
        "source_sheet": "xl/worksheets/sheet1.xml",
        "crs": "CGCS2000 / EPSG:4490"
      },
      "geometry": {
        "type": "Point",
        "coordinates": [
          121.1611085,
          31.928844681
        ]
      }
    }
  ]
}
